{
  "norad_id": 67648,
  "name": "STARLINK-36719",
  "history": [
    {
      "epoch": "2026-03-28T20:12:28.958112",
      "apogee_km": 466.5228378534093,
      "perigee_km": 464.17018509183526,
      "latitude_deg": 75.94374348660521,
      "longitude_deg": -54.3678243199829,
      "semi_major_axis_km": 6843.483511472622,
      "eccentricity": 0.00017189,
      "inclination_deg": 97.2858,
      "raan_deg": 121.8464,
      "arg_perigee_deg": 87.9836,
      "mean_anomaly_deg": 272.1603,
      "mean_motion_rev_day": 15.33511101
    },
    {
      "epoch": "2026-03-29T00:54:23.439456",
      "apogee_km": 468.4474941420767,
      "perigee_km": 462.18026182801714,
      "latitude_deg": -75.5861378250273,
      "longitude_deg": -35.5739561598748,
      "semi_major_axis_km": 6843.450877985047,
      "eccentricity": 0.0004579,
      "inclination_deg": 97.2834,
      "raan_deg": 122.0375,
      "arg_perigee_deg": 82.8706,
      "mean_anomaly_deg": 277.3057,
      "mean_motion_rev_day": 15.3352207
    }
  ]
}